IRIDIUM 36 [-]          
1 24967U 97056C   23362.57973539  .00000623  00000+0  20562-3 0  9997
2 24967  86.3961  38.3015 0002062  89.8808 270.2626 14.36563524375159
IRIDIUM 39 [-]          
1 25042U 97069D   23362.60319650  .00001057  00000+0  28141-3 0  9991
2 25042  86.3913  80.9797 0016417 299.7899  60.1671 14.47592403371299
IRIDIUM 38 [-]          
1 25043U 97069E   23362.36295369  .00000831  00000+0  27376-3 0  9993
2 25043  86.3962  98.8706 0004003  85.7607 274.4047 14.37031149368837
IRIDIUM 42 [-]          
1 25077U 97077A   23362.49153196  .00000795  00000+0  27066-3 0  9999
2 25077  86.3968 104.3333 0002689  88.4010 271.7494 14.35328293364182
IRIDIUM 44 [-]          
1 25078U 97077B   23362.28213763  .00000791  00000+0  24948-3 0  9996
2 25078  86.3955  87.7815 0002544  46.5009 313.6400 14.39138825366450
IRIDIUM 45 [-]          
1 25104U 97082A   23362.55428529  .00008248  00000+0  50831-3 0  9995
2 25104  86.3761 302.4893 0175779 140.6155 220.8014 14.97714966371127
IRIDIUM 24 [-]          
1 25105U 97082B   23362.37350883  .00001034  00000+0  31617-3 0  9990
2 25105  86.3912 307.6270 0013398  56.0572 304.1899 14.40904264365886
IRIDIUM 51 [-]          
1 25262U 98018A   23362.64757481  .00012921  00000+0  67836-3 0  9998
2 25262  86.3922 312.7714 0162905  92.8269 269.1623 15.04728648365786
